{"type": "FeatureCollection", "features": [ {"type": "Feature", "properties": {"norad_id": 38755, "name": "SPOT 6", "group": "resource", "lat": 11.105098797523363, "lon": -135.85597237346553, "alt_km": 698.9017017376027, "timestamp": "2025-12-03T13:52:09.222170+00:00", "meta": {"OBJECT_NAME": "SPOT 6", "OBJECT_ID": "2012-047A", "EPOCH": "2025-12-03T08:09:33.528960", "MEAN_MOTION": 14.58588589, "ECCENTRICITY": 0.000104, "INCLINATION": 98.1585, "RA_OF_ASC_NODE": 42.2969, "ARG_OF_PERICENTER": 100.1225, "MEAN_ANOMALY": 260.0092, "EPHEMERIS_TYPE": 0, "CLASSIFICATION_TYPE": "U", "NORAD_CAT_ID": 38755, "ELEMENT_SET_NO": 999, "REV_AT_EPOCH": 70450, "BSTAR": 0.00014973499, "MEAN_MOTION_DOT": 6.51e-06, "MEAN_MOTION_DDOT": 0}, "tle": {"line1": "1 38755U 12047A   25337.33997140  .00000651  00000+0  14973-3 0  9996", "line2": "2 38755  98.1585  42.2969 0001040 100.1225 260.0092 14.58588589704500"}}, "geometry": {"type": "Point", "coordinates": [-135.85597237346553, 11.105098797523363]}}, {"type": "Feature", "properties": {"norad_id": 39019, "name": "PLEIADES 1B", "group": "resource", "lat": 67.35790953022412, "lon": 30.199931087876752, "alt_km": 690.4865356868504, "timestamp": "2025-12-03T13:52:09.222181+00:00", "meta": {"OBJECT_NAME": "PLEIADES 1B", "OBJECT_ID": "2012-068A", "EPOCH": "2025-12-03T08:36:55.917792", "MEAN_MOTION": 14.58537841, "ECCENTRICITY": 0.00012558, "INCLINATION": 98.1807, "RA_OF_ASC_NODE": 50.1584, "ARG_OF_PERICENTER": 87.7232, "MEAN_ANOMALY": 272.4111, "EPHEMERIS_TYPE": 0, "CLASSIFICATION_TYPE": "U", "NORAD_CAT_ID": 39019, "ELEMENT_SET_NO": 999, "REV_AT_EPOCH": 69230, "BSTAR": 0.0001510489, "MEAN_MOTION_DOT": 6.56e-06, "MEAN_MOTION_DDOT": 0}, "tle": {"line1": "1 39019U 12068A   25337.35898053  .00000656  00000+0  15105-3 0  9991", "line2": "2 39019  98.1807  50.1584 0001255  87.7232 272.4111 14.58537841692306"}}, "geometry": {"type": "Point", "coordinates": [30.199931087876752, 67.35790953022412]}}, {"type": "Feature", "properties": {"norad_id": 39030, "name": "GOKTURK 2", "group": "resource", "lat": 81.59696225740726, "lon": 65.84056364601922, "alt_km": 636.2858796515447, "timestamp": "2025-12-03T13:52:09.222192+00:00", "meta": {"OBJECT_NAME": "GOKTURK 2", "OBJECT_ID": "2012-073A", "EPOCH": "2025-12-03T08:33:50.906016", "MEAN_MOTION": 14.75269862, "ECCENTRICITY": 8.021e-05, "INCLINATION": 97.6899, "RA_OF_ASC_NODE": 179.4715, "ARG_OF_PERICENTER": 95.1653, "MEAN_ANOMALY": 264.9649, "EPHEMERIS_TYPE": 0, "CLASSIFICATION_TYPE": "U", "NORAD_CAT_ID": 39030, "ELEMENT_SET_NO": 999, "REV_AT_EPOCH": 69563, "BSTAR": 0.00015513904, "MEAN_MOTION_DOT": 1.003e-05, "MEAN_MOTION_DDOT": 0}, "tle": {"line1": "1 39030U 12073A   25337.35683919  .00001003  00000+0  15514-3 0  9994", "line2": "2 39030  97.6899 179.4715 0000802  95.1653 264.9649 14.75269862695637"}}, "geometry": {"type": "Point", "coordinates": [65.84056364601922, 81.59696225740726]}}, {"type": "Feature", "properties": {"norad_id": 39084, "name": "LANDSAT 8", "group": "resource", "lat": -71.88984370864436, "lon": 71.97717132697632, "alt_km": 710.4779028698094, "timestamp": "2025-12-03T13:52:09.222203+00:00", "meta": {"OBJECT_NAME": "LANDSAT 8", "OBJECT_ID": "2013-008A", "EPOCH": "2025-12-03T07:36:55.081152", "MEAN_MOTION": 14.57125133, "ECCENTRICITY": 0.0001067, "INCLINATION": 98.2084, "RA_OF_ASC_NODE": 45.5294, "ARG_OF_PERICENTER": 88.7105, "MEAN_ANOMALY": 271.4215, "EPHEMERIS_TYPE": 0, "CLASSIFICATION_TYPE": "U", "NORAD_CAT_ID": 39084, "ELEMENT_SET_NO": 999, "REV_AT_EPOCH": 66937, "BSTAR": 0.00016125481, "MEAN_MOTION_DOT": 6.82e-06, "MEAN_MOTION_DDOT": 0}, "tle": {"line1": "1 39084U 13008A   25337.31730418  .00000682  00000+0  16125-3 0  9996", "line2": "2 39084  98.2084  45.5294 0001067  88.7105 271.4215 14.57125133669374"}}, "geometry": {"type": "Point", "coordinates": [71.97717132697632, -71.88984370864436]}}, {"type": "Feature", "properties": {"norad_id": 39086, "name": "SARAL", "group": "resource", "lat": -6.263095138685118, "lon": 162.57367227164002, "alt_km": 787.5224365119111, "timestamp": "2025-12-03T13:52:09.222214+00:00", "meta": {"OBJECT_NAME": "SARAL", "OBJECT_ID": "2013-009A", "EPOCH": "2025-12-03T07:11:40.159968", "MEAN_MOTION": 14.32751634, "ECCENTRICITY": 0.00026204, "INCLINATION": 98.5506, "RA_OF_ASC_NODE": 161.3532, "ARG_OF_PERICENTER": 126.7285, "MEAN_ANOMALY": 233.414, "EPHEMERIS_TYPE": 0, "CLASSIFICATION_TYPE": "U", "NORAD_CAT_ID": 39086, "ELEMENT_SET_NO": 999, "REV_AT_EPOCH": 66755, "BSTAR": 9.686702e-05, "MEAN_MOTION_DOT": 2.2e-06, "MEAN_MOTION_DDOT": 0}, "tle": {"line1": "1 39086U 13009A   25337.29977037  .00000220  00000+0  96867-4 0  9996", "line2": "2 39086  98.5506 161.3532 0002620 126.7285 233.4140 14.32751634667555"}}, "geometry": {"type": "Point", "coordinates": [162.57367227164002, -6.263095138685118]}}, {"type": "Feature", "properties": {"norad_id": 39150, "name": "GAOFEN-1", "group": "resource", "lat": 49.04455867356039, "lon": -122.35490294602995, "alt_km": 626.669997035594, "timestamp": "2025-12-03T13:52:09.222224+00:00", "meta": {"OBJECT_NAME": "GAOFEN-1", "OBJECT_ID": "2013-018A", "EPOCH": "2025-12-03T08:24:05.558976", "MEAN_MOTION": 14.76506542, "ECCENTRICITY": 0.00176416, "INCLINATION": 97.9339, "RA_OF_ASC_NODE": 48.1749, "ARG_OF_PERICENTER": 172.5038, "MEAN_ANOMALY": 187.6439, "EPHEMERIS_TYPE": 0, "CLASSIFICATION_TYPE": "U", "NORAD_CAT_ID": 39150, "ELEMENT_SET_NO": 999, "REV_AT_EPOCH": 67934, "BSTAR": 0.00018825363, "MEAN_MOTION_DOT": 1.264e-05, "MEAN_MOTION_DDOT": 0}, "tle": {"line1": "1 39150U 13018A   25337.35006434  .00001264  00000+0  18825-3 0  9995", "line2": "2 39150  97.9339  48.1749 0017641 172.5038 187.6439 14.76506542679345"}}, "geometry": {"type": "Point", "coordinates": [-122.35490294602995, 49.04455867356039]}}, {"type": "Feature", "properties": {"norad_id": 39160, "name": "VNREDSAT 1", "group": "resource", "lat": -34.963122822060114, "lon": -152.42600460787574, "alt_km": 684.3095748650167, "timestamp": "2025-12-03T13:52:09.222235+00:00", "meta": {"OBJECT_NAME": "VNREDSAT 1", "OBJECT_ID": "2013-021B", "EPOCH": "2025-12-03T07:58:18.363936", "MEAN_MOTION": 14.6489948, "ECCENTRICITY": 0.00013674, "INCLINATION": 97.9387, "RA_OF_ASC_NODE": 32.9364, "ARG_OF_PERICENTER": 83.7959, "MEAN_ANOMALY": 276.34, "EPHEMERIS_TYPE": 0, "CLASSIFICATION_TYPE": "U", "NORAD_CAT_ID": 39160, "ELEMENT_SET_NO": 999, "REV_AT_EPOCH": 67161, "BSTAR": 0.00021435728, "MEAN_MOTION_DOT": 1.1e-05, "MEAN_MOTION_DDOT": 0}, "tle": {"line1": "1 39160U 13021B   25337.33215699  .00001100  00000+0  21436-3 0  9994", "line2": "2 39160  97.9387  32.9364 0001367  83.7959 276.3400 14.64899480671615"}}, "geometry": {"type": "Point", "coordinates": [-152.42600460787574, -34.963122822060114]}}, {"type": "Feature", "properties": {"norad_id": 39227, "name": "ARIRANG-5 (KOMPSAT-5)", "group": "resource", "lat": 68.39108337001527, "lon": 142.2704997017865, "alt_km": 543.4856663288147, "timestamp": "2025-12-03T13:52:09.222246+00:00", "meta": {"OBJECT_NAME": "ARIRANG-5 (KOMPSAT-5)", "OBJECT_ID": "2013-042A", "EPOCH": "2025-12-03T08:46:19.230240", "MEAN_MOTION": 15.04502165, "ECCENTRICITY": 0.00042851, "INCLINATION": 97.6157, "RA_OF_ASC_NODE": 161.8032, "ARG_OF_PERICENTER": 81.9897, "MEAN_ANOMALY": 278.1815, "EPHEMERIS_TYPE": 0, "CLASSIFICATION_TYPE": "U", "NORAD_CAT_ID": 39227, "ELEMENT_SET_NO": 999, "REV_AT_EPOCH": 67441, "BSTAR": 0.00017681114, "MEAN_MOTION_DOT": 2.415e-05, "MEAN_MOTION_DDOT": 0}, "tle": {"line1": "1 39227U 13042A   25337.36550035  .00002415  00000+0  17681-3 0  9997", "line2": "2 39227  97.6157 161.8032 0004285  81.9897 278.1815 15.04502165674415"}}, "geometry": {"type": "Point", "coordinates": [142.2704997017865, 68.39108337001527]}}, {"type": "Feature", "properties": {"norad_id": 39418, "name": "SKYSAT-A", "group": "resource", "lat": -30.66275841635378, "lon": -156.3616871805763, "alt_km": 530.5725744170886, "timestamp": "2025-12-03T13:52:09.222257+00:00", "meta": {"OBJECT_NAME": "SKYSAT-A", "OBJECT_ID": "2013-066C", "EPOCH": "2025-12-03T03:24:15.349248", "MEAN_MOTION": 15.11489448, "ECCENTRICITY": 0.00204425, "INCLINATION": 97.4128, "RA_OF_ASC_NODE": 27.6425, "ARG_OF_PERICENTER": 272.095, "MEAN_ANOMALY": 87.794, "EPHEMERIS_TYPE": 0, "CLASSIFICATION_TYPE": "U", "NORAD_CAT_ID": 39418, "ELEMENT_SET_NO": 999, "REV_AT_EPOCH": 65885, "BSTAR": 0.00030269913, "MEAN_MOTION_DOT": 5.085e-05, "MEAN_MOTION_DDOT": 0}, "tle": {"line1": "1 39418U 13066C   25337.14184432  .00005085  00000+0  30270-3 0  9990", "line2": "2 39418  97.4128  27.6425 0020442 272.0950  87.7940 15.11489448658853"}}, "geometry": {"type": "Point", "coordinates": [-156.3616871805763, -30.66275841635378]}}, {"type": "Feature", "properties": {"norad_id": 39419, "name": "DUBAISAT-2", "group": "resource", "lat": 76.9867855615216, "lon": -177.27630215846813, "alt_km": 536.5157749006767, "timestamp": "2025-12-03T13:52:09.222267+00:00", "meta": {"OBJECT_NAME": "DUBAISAT-2", "OBJECT_ID": "2013-066D", "EPOCH": "2025-12-03T07:03:20.894112", "MEAN_MOTION": 15.08209225, "ECCENTRICITY": 0.00114972, "INCLINATION": 97.4441, "RA_OF_ASC_NODE": 327.9945, "ARG_OF_PERICENTER": 356.3863, "MEAN_ANOMALY": 3.7281, "EPHEMERIS_TYPE": 0, "CLASSIFICATION_TYPE": "U", "NORAD_CAT_ID": 39419, "ELEMENT_SET_NO": 999, "REV_AT_EPOCH": 65684, "BSTAR": 0.00041574946, "MEAN_MOTION_DOT": 6.382e-05, "MEAN_MOTION_DDOT": 0}, "tle": {"line1": "1 39419U 13066D   25337.29399183  .00006382  00000+0  41575-3 0  9999", "line2": "2 39419  97.4441 327.9945 0011497 356.3863   3.7281 15.08209225656846"}}, "geometry": {"type": "Point", "coordinates": [-177.27630215846813, 76.9867855615216]}}]}